STARLINK-36409          
1 67406U 26005C   26034.58335648 -.00001371  00000+0 -17556-4 0  9994
2 67406  42.9999  73.7497 0001560 288.5843  86.3178 15.50565768  4706
STARLINK-36510          
1 67407U 26005D   26034.58335648  .00004980  00000+0  90721-4 0  9997
2 67407  42.9999  73.7450 0001586 287.6408  89.1811 15.50560825  4705
STARLINK-36509          
1 67408U 26005E   26034.58335648  .00176084  00000+0  29506-2 0  9994
2 67408  42.9999  73.7405 0001244 279.0839  99.6791 15.50479948  4708
STARLINK-36507          
1 67409U 26005F   26034.58335648 -.00004915  00000+0 -78053-4 0  9993
2 67409  42.9999  73.7352 0001494 284.8277  95.8286 15.50565011  4701
STARLINK-36508          
1 67410U 26005G   26034.58335648 -.02013204  00000+0 -42437-1 0  9992
2 67410  42.9996  73.7389 0001441 276.6089 102.9302 15.47801843  4703
STARLINK-36503          
1 67411U 26005H   26034.58335648  .00129687  00000+0  21872-2 0  9993
2 67411  42.9999  73.7258 0001232 276.3143 108.2080 15.50486320  4444
STARLINK-36446          
1 67412U 26005J   26034.58335648  .00012843  00000+0  22456-3 0  9999
2 67412  42.9999  73.7208 0001512 269.5101 116.8978 15.50556547  4708
STARLINK-36442          
1 67413U 26005K   26034.58335648  .00135675  00000+0  22863-2 0  9990
2 67413  42.9998  73.7159 0001214 274.3547 113.9995 15.50484415  4701
STARLINK-36506          
1 67414U 26005L   26034.58335648  .00005249  00000+0  95295-4 0  9995
2 67414  42.9998  73.7108 0001238 269.1358 121.1068 15.50559665  4706
STARLINK-36468          
1 67415U 26005M   26034.58335648  .00015007  00000+0  26135-3 0  9995
2 67415  42.9999  73.7061 0001461 270.0887 122.0701 15.50554999  4655
STARLINK-36487          
1 67416U 26005N   26034.58335648 -.02029207  00000+0 -40304-1 0  9999
2 67416  43.0000  73.7022 0001681 274.7864 118.8352 15.49505312  4702
STARLINK-36374          
1 67417U 26005P   26034.58335648  .00023714  00000+0  40922-3 0  9991
2 67417  42.9999  73.6965 0001550 270.0954 125.8979 15.50551036  4706
